{
  "links" : {
    "next" : "https://api.nasa.gov/neo/rest/v1/feed?start_date=2000-12-23&end_date=2000-12-23&detailed=true&api_key=t0TVs3DtDT2H8Oy2Zy8m2eVrNsAVKAexjcZXUckd",
    "prev" : "https://api.nasa.gov/neo/rest/v1/feed?start_date=2000-12-21&end_date=2000-12-21&detailed=true&api_key=t0TVs3DtDT2H8Oy2Zy8m2eVrNsAVKAexjcZXUckd",
    "self" : "https://api.nasa.gov/neo/rest/v1/feed?start_date=2000-12-22&end_date=2000-12-22&detailed=true&api_key=t0TVs3DtDT2H8Oy2Zy8m2eVrNsAVKAexjcZXUckd"
  },
  "element_count" : 7,
  "near_earth_objects" : {
    "2000-12-22" : [ {
      "links" : {
        "self" : "https://api.nasa.gov/neo/rest/v1/neo/3771633?api_key=t0TVs3DtDT2H8Oy2Zy8m2eVrNsAVKAexjcZXUckd"
      },
      "neo_reference_id" : "3771633",
      "name" : "(2017 FZ2)",
      "nasa_jpl_url" : "http://ssd.jpl.nasa.gov/sbdb.cgi?sstr=3771633",
      "absolute_magnitude_h" : 26.692,
      "estimated_diameter" : {
        "kilometers" : {
          "estimated_diameter_min" : 0.0121942467,
          "estimated_diameter_max" : 0.0272671645
        },
        "meters" : {
          "estimated_diameter_min" : 12.1942466911,
          "estimated_diameter_max" : 27.2671645358
        },
        "miles" : {
          "estimated_diameter_min" : 0.0075771513,
          "estimated_diameter_max" : 0.0169430253
        },
        "feet" : {
          "estimated_diameter_min" : 40.0073723142,
          "estimated_diameter_max" : 89.4592040956
        }
      },
      "is_potentially_hazardous_asteroid" : false,
      "close_approach_data" : [ {
        "close_approach_date" : "2000-12-22",
        "epoch_date_close_approach" : 977472000000,
        "relative_velocity" : {
          "kilometers_per_second" : "7.2776219122",
          "kilometers_per_hour" : "26199.4388839866",
          "miles_per_hour" : "16279.3124554416"
        },
        "miss_distance" : {
          "astronomical" : "0.2638949741",
          "lunar" : "102.6551437378",
          "kilometers" : "39478128",
          "miles" : "24530570"
        },
        "orbiting_body" : "Earth"
      } ],
      "orbital_data" : {
        "orbit_id" : "7",
        "orbit_determination_date" : "2017-06-20 13:03:38",
        "orbit_uncertainty" : "3",
        "minimum_orbit_intersection" : ".00138825",
        "jupiter_tisserand_invariant" : "6.015",
        "epoch_osculation" : "2458000.5",
        "eccentricity" : ".2640538859757104",
        "semi_major_axis" : "1.007138471483015",
        "inclination" : "1.811674081309308",
        "ascending_node_longitude" : "185.8691790850466",
        "orbital_period" : "369.1749337279458",
        "perihelion_distance" : ".7411996443722877",
        "perihelion_argument" : "100.3230370449916",
        "aphelion_distance" : "1.273077298593743",
        "perihelion_time" : "2457910.968954695910",
        "mean_anomaly" : "87.30597168123131",
        "mean_motion" : ".9751474629241565",
        "equinox" : "J2000"
      }
    } ]
  }
}